NORAD_CAT_ID,OBJECT_NAME,OBJECT_TYPE,EPOCH,MEAN_MOTION,ECCENTRICITY,INCLINATION,RA_OF_ASC_NODE,ARG_OF_PERICENTER,MEAN_ANOMALY,BSTAR,MEAN_MOTION_DOT,MEAN_MOTION_DDOT,TLE_LINE0,TLE_LINE1,TLE_LINE2,SEMIMAJOR_AXIS,PERIOD,APOGEE,PERIGEE,DECAYED
53931.0,STARLINK-5015,PAYLOAD,2023-05-03 11:38:34,15.0883755,6.14e-05,53.2155,292.935,74.8325,285.2735,3.6319e-05,2.9e-06,0.0,0 STARLINK-5015,1 53931U 22119AX  23123.48512064  .00000290  00000-0  36319-4 0  9994,2 53931  53.2155 292.9350 0000614  74.8325 285.2735 15.08837550 34432,6917.888,95.438,540.178,539.328,0.0
53931.0,STARLINK-5015,PAYLOAD,2023-05-03 18:00:06,15.08838883,6.42e-05,53.2159,291.745,96.4836,263.6229,3.5161e-05,2.72e-06,0.0,0 STARLINK-5015,1 53931U 22119AX  23123.75007974  .00000272  00000-0  35161-4 0  9997,2 53931  53.2159 291.7450 0000642  96.4836 263.6229 15.08838883 34890,6917.884,95.438,540.193,539.305,0.0
53931.0,STARLINK-5015,PAYLOAD,2023-05-04 11:29:21,15.08838918,6.79e-05,53.217,288.4729,94.7035,265.4034,2.7331e-05,1.47e-06,0.0,0 STARLINK-5015,1 53931U 22119AX  23124.47872071  .00000147  00000-0  27331-4 0  9996,2 53931  53.2170 288.4729 0000679  94.7035 265.4034 15.08838918 35004,6917.884,95.438,540.218,539.279,0.0
53931.0,STARLINK-5015,PAYLOAD,2023-05-04 17:50:53,15.0884632,7.97e-05,53.2165,287.2824,118.332,241.7753,0.00018461,2.652e-05,0.0,0 STARLINK-5015,1 53931U 22119AX  23124.74367702  .00002652  00000-0  18461-3 0  9992,2 53931  53.2165 287.2824 0000797 118.3320 241.7753 15.08846320 34620,6917.861,95.437,540.277,539.175,0.0
53931.0,STARLINK-5015,PAYLOAD,2023-05-05 03:23:12,15.08839676,5.53e-05,53.2164,285.5001,89.4054,270.7002,7.5961e-05,9.22e-06,0.0,0 STARLINK-5015,1 53931U 22119AX  23125.14111925  .00000922  00000-0  75961-4 0  9998,2 53931  53.2164 285.5001 0000553  89.4054 270.7002 15.08839676 34680,6917.881,95.438,540.129,539.364,0.0
53931.0,STARLINK-5015,PAYLOAD,2023-05-05 19:17:04,15.0883941,7.27e-05,53.2163,282.528,89.58,270.5275,0.00013503,1.862e-05,0.0,0 STARLINK-5015,1 53931U 22119AX  23125.80352320  .00001862  00000-0  13503-3 0  9994,2 53931  53.2163 282.5280 0000727  89.5800 270.5275 15.08839410 35203,6917.882,95.438,540.25,539.244,0.0
53931.0,STARLINK-5015,PAYLOAD,2023-05-06 03:14:00,15.08837374,7.86e-05,53.216,281.0416,81.6379,278.4702,3.4389e-05,2.6e-06,0.0,0 STARLINK-5015,1 53931U 22119AX  23126.13472401  .00000260  00000-0  34389-4 0  9991,2 53931  53.2160 281.0416 0000786  81.6379 278.4702 15.08837374 34831,6917.888,95.438,540.297,539.21,0.0
53931.0,STARLINK-5015,PAYLOAD,2023-05-06 14:21:41,15.08846449,5.9e-05,53.215,278.9591,81.2949,278.8109,0.00022574,3.307e-05,0.0,0 STARLINK-5015,1 53931U 22119AX  23126.59840175  .00003307  00000-0  22574-3 0  9995,2 53931  53.2150 278.9591 0000590  81.2949 278.8109 15.08846449 35324,6917.861,95.437,540.134,539.318,0.0
53931.0,STARLINK-5015,PAYLOAD,2023-05-06 20:43:14,15.08858356,6.89e-05,53.2147,277.77,87.668,272.4391,0.00056784,8.765e-05,0.0,0 STARLINK-5015,1 53931U 22119AX  23126.86335792  .00008765  00000-0  56784-3 0  9992,2 53931  53.2147 277.7700 0000689  87.6680 272.4391 15.08858356 34940,6917.824,95.436,540.166,539.213,0.0
53931.0,STARLINK-5015,PAYLOAD,2023-05-07 03:04:47,15.08836415,0.0001026,53.2155,276.58,96.8443,263.2665,8.0377e-05,9.92e-06,0.0,0 STARLINK-5015,1 53931U 22119AX  23127.12832554  .00000992  00000-0  80377-4 0  9990,2 53931  53.2155 276.5800 0001026  96.8443 263.2665 15.08836415 34980,6917.891,95.438,540.466,539.047,0.0
53931.0,STARLINK-5015,PAYLOAD,2023-05-07 17:23:16,15.08829673,7.9e-05,53.2154,273.903,94.9839,265.1244,-3.1942e-05,-7.96e-06,0.0,0 STARLINK-5015,1 53931U 22119AX  23127.72449140 -.00000796  00000-0 -31942-4 0  9999,2 53931  53.2154 273.9030 0000790  94.9839 265.1244 15.08829673 35073,6917.912,95.438,540.323,539.23,0.0
53931.0,STARLINK-5015,PAYLOAD,2023-05-08 02:55:34,15.08840112,8.86e-05,53.2166,272.1198,94.6412,265.4682,0.00021011,3.058e-05,0.0,0 STARLINK-5015,1 53931U 22119AX  23128.12193106  .00003058  00000-0  21011-3 0  9999,2 53931  53.2166 272.1198 0000886  94.6412 265.4682 15.08840112 35139,6917.88,95.438,540.358,539.132,0.0
53931.0,STARLINK-5015,PAYLOAD,2023-05-08 15:38:39,15.08852897,4.55e-05,53.2139,269.7432,89.5693,270.5352,0.00054048,8.328e-05,0.0,0 STARLINK-5015,1 53931U 22119AX  23128.65184659  .00008328  00000-0  54048-3 0  9991,2 53931  53.2139 269.7432 0000455  89.5693 270.5352 15.08852897 35211,6917.841,95.437,540.021,539.391,0.0
53931.0,STARLINK-5015,PAYLOAD,2023-05-09 13:54:02,15.08861429,4.87e-05,53.2143,265.5767,104.7692,255.3354,0.0004592,7.032e-05,0.0,0 STARLINK-5015,1 53931U 22119AX  23129.57919782  .00007032  00000-0  45920-3 0  9996,2 53931  53.2143 265.5767 0000487 104.7692 255.3354 15.08861429 35770,6917.815,95.436,540.017,539.343,0.0
53931.0,STARLINK-5015,PAYLOAD,2023-05-10 12:09:26,15.0883445,6.73e-05,53.2144,261.4138,102.0499,258.0568,-0.00019793,-3.436e-05,0.0,0 STARLINK-5015,1 53931U 22119AX  23130.50656146 -.00003436  00000-0 -19793-3 0  9998,2 53931  53.2144 261.4138 0000673 102.0499 258.0568 15.08834450 35918,6917.897,95.438,540.228,539.297,0.0
53931.0,STARLINK-5015,PAYLOAD,2023-05-10 18:30:59,15.08844151,6.65e-05,53.2162,260.2259,102.5415,257.5652,0.00013617,1.88e-05,0.0,0 STARLINK-5015,1 53931U 22119AX  23130.77151945  .00001880  00000-0  13617-3 0  9992,2 53931  53.2162 260.2259 0000665 102.5415 257.5652 15.08844151 35954,6917.868,95.437,540.193,539.273,0.0
53931.0,STARLINK-5015,PAYLOAD,2023-05-10 23:17:08,15.08846112,6.08e-05,53.2158,259.334,92.9536,267.1526,0.0002842,4.239e-05,0.0,0 STARLINK-5015,1 53931U 22119AX  23130.97023986  .00004239  00000-0  28420-3 0  9996,2 53931  53.2158 259.3340 0000608  92.9536 267.1526 15.08846112 35981,6917.862,95.437,540.147,539.306,0.0
53931.0,STARLINK-5015,PAYLOAD,2023-05-11 13:35:37,15.08832087,8.5e-05,53.2164,256.6552,48.5858,311.5207,0.00024146,3.556e-05,0.0,0 STARLINK-5015,1 53931U 22119AX  23131.56640854  .00003556  00000-0  24146-3 0  9993,2 53931  53.2164 256.6552 0000850  48.5858 311.5207 15.08832087 35656,6917.905,95.438,540.358,539.182,0.0
53931.0,STARLINK-5015,PAYLOAD,2023-05-12 00:43:19,15.08836506,9.06e-05,53.2164,254.5736,49.1107,310.9964,0.00010984,1.461e-05,0.0,0 STARLINK-5015,1 53931U 22119AX  23132.03008904  .00001461  00000-0  10984-3 0  9998,2 53931  53.2164 254.5736 0000906  49.1107 310.9964 15.08836506 36141,6917.891,95.438,540.383,539.129,0.0
53931.0,STARLINK-5015,PAYLOAD,2023-05-12 15:01:47,15.08840291,8.48e-05,53.2161,251.8976,59.0514,301.0562,0.00019483,2.814e-05,0.0,0 STARLINK-5015,1 53931U 22119AX  23132.62624941  .00002814  00000-0  19483-3 0  9994,2 53931  53.2161 251.8976 0000848  59.0514 301.0562 15.08840291 35815,6917.879,95.438,540.331,539.158,0.0
53931.0,STARLINK-5015,PAYLOAD,2023-05-13 11:41:49,15.08829482,7.09e-05,53.2162,248.0343,76.2719,283.8352,-2.5844e-05,-6.99e-06,0.0,0 STARLINK-5015,1 53931U 22119AX  23133.48737609 -.00000699  00000-0 -25844-4 0  9995,2 53931  53.2162 248.0343 0000709  76.2719 283.8352 15.08829482 35943,6917.913,95.438,540.268,539.287,0.0
53931.0,STARLINK-5015,PAYLOAD,2023-05-13 13:17:12,15.08830799,7.43e-05,53.2165,247.7376,81.3324,278.7752,-8.4419e-06,-4.22e-06,0.0,0 STARLINK-5015,1 53931U 22119AX  23133.55361577 -.00000422  00000-0 -84419-5 0  9998,2 53931  53.2165 247.7376 0000743  81.3324 278.7752 15.08830799 36373,6917.909,95.438,540.288,539.26,0.0
53931.0,STARLINK-5015,PAYLOAD,2023-05-13 16:27:58,15.08836156,9.33e-05,53.2175,247.1443,117.4228,242.6859,-5.5076e-06,-3.75e-06,0.0,0 STARLINK-5015,1 53931U 22119AX  23133.68609142 -.00000375  00000-0 -55076-5 0  9999,2 53931  53.2175 247.1443 0000933 117.4228 242.6859 15.08836156 35974,6917.892,95.438,540.403,539.112,0.0
53931.0,STARLINK-5015,PAYLOAD,2023-05-14 11:32:36,15.08843333,6.76e-05,53.2167,243.5742,80.3332,279.7737,9.0204e-05,1.148e-05,0.0,0 STARLINK-5015,1 53931U 22119AX  23134.48097316  .00001148  00000-0  90204-4 0  9990,2 53931  53.2167 243.5742 0000676  80.3332 279.7737 15.08843333 36517,6917.87,95.437,540.203,539.268,0.0
53931.0,STARLINK-5015,PAYLOAD,2023-05-14 17:54:08,15.08848613,7.31e-05,53.2163,242.3853,85.8641,274.2435,0.00030101,4.507e-05,0.0,0 STARLINK-5015,1 53931U 22119AX  23134.74593171  .00004507  00000-0  30101-3 0  9990,2 53931  53.2163 242.3853 0000731  85.8641 274.2435 15.08848613 36137,6917.854,95.437,540.225,539.213,0.0
53931.0,STARLINK-5015,PAYLOAD,2023-05-15 00:15:41,15.08839489,8.15e-05,53.2154,241.1976,76.5065,283.6018,0.00018374,2.638e-05,0.0,0 STARLINK-5015,1 53931U 22119AX  23135.01089631  .00002638  00000-0  18374-3 0  9993,2 53931  53.2154 241.1976 0000815  76.5065 283.6018 15.08839489 36176,6917.882,95.438,540.311,539.183,0.0
53931.0,STARLINK-5015,PAYLOAD,2023-05-15 12:58:46,15.08843666,6.26e-05,53.2153,238.8154,59.6365,300.4689,0.00019012,2.74e-05,0.0,0 STARLINK-5015,1 53931U 22119AX  23135.54081403  .00002740  00000-0  19012-3 0  9994,2 53931  53.2153 238.8154 0000626  59.6365 300.4689 15.08843666 36670,6917.869,95.437,540.167,539.301,0.0
53931.0,STARLINK-5015,PAYLOAD,2023-05-15 16:09:32,15.08850418,7.01e-05,53.215,238.2208,64.3658,295.7406,0.00032691,4.92e-05,0.0,0 STARLINK-5015,1 53931U 22119AX  23135.67329171  .00004920  00000-0  32691-3 0  9995,2 53931  53.2150 238.2208 0000701  64.3658 295.7406 15.08850418 36691,6917.849,95.437,540.198,539.229,0.0
53931.0,STARLINK-5015,PAYLOAD,2023-05-16 12:49:33,15.08841938,5.03e-05,53.2152,234.3543,67.8587,292.2459,0.00024053,3.543e-05,0.0,0 STARLINK-5015,1 53931U 22119AX  23136.53441454  .00003543  00000-0  24053-3 0  9993,2 53931  53.2152 234.3543 0000503  67.8587 292.2459 15.08841938 36407,6917.874,95.437,540.087,539.391,0.0
53931.0,STARLINK-5015,PAYLOAD,2023-05-17 12:40:20,15.0884633,6.65e-05,53.2151,229.8931,83.434,276.6727,0.00025213,3.728e-05,0.0,0 STARLINK-5015,1 53931U 22119AX  23137.52801365  .00003728  00000-0  25213-3 0  9998,2 53931  53.2151 229.8931 0000665  83.4340 276.6727 15.08846330 36973,6917.861,95.437,540.186,539.266,0.0
